STARLINK-1621
1 46127U 20057L   26092.83335647  .00407032  00000+0  13473-2 0  9997
2 46127  53.0395 122.0690 0007813  15.6188 150.3585 15.88780774  5866
